154P/Brewington,e,17.6291,343.0118,47.8524,4.803936,0.0936070,0.67507179,221.7426,05/30.0/2020,2000,g  2.5,12.0
# From MPC118098
155P/Shoemaker,e,6.3959,97.1979,14.6591,6.586517,0.0583069,0.72644136,11.4864,05/30.0/2020,2000,g 10.0,4.8
# From MPC105242
156P/Russell-LINEAR,e,17.2624,35.3782,0.4038,3.460953,0.1530772,0.61481206,333.6937,05/30.0/2020,2000,g 15.5,2.0
# From MPC104795
157P/Tritton,e,12.9411,287.9219,156.1173,3.494973,0.1508476,0.58198884,236.8350,05/30.0/2020,2000,g 10.0,4.0
# From MPEC 2016-K18
158P/Kowal-LINEAR,e,7.9282,135.8411,196.4087,4.864147,0.0918743,0.01602416,304.2888,05/30.0/2020,2000,g  9.0,4.0
# From MPEC 2020-HN5
159P/LONEOS,e,23.4610,55.0082,4.6343,5.856972,0.0695335,0.38144248,51.3820,05/30.0/2020,2000,g 10.0,4.0
# From MPEC 2019-TG9
160P/LINEAR,e,15.6157,333.3668,12.6558,3.771936,0.1345419,0.52613534,24.1779,05/30.0/2020,2000,g 15.5,2.0
# From MPC 75721
161P/Hartley-IRAS,e,95.7376,1.4592,46.9172,7.727334,0.0458838,0.83451316,251.0676,05/30.0/2020,2000,g  8.5,6.0
# From MPEC 2020-HN5
162P/Siding Spring,e,27.5546,30.9227,357.1141,3.091299,0.1813396,0.58296785,325.2184,05/30.0/2020,2000,g 12.0,4.0
# From MPEC 2020-HN5
163P/NEAT,e,12.7079,102.0920,349.6710,3.769870,0.1346525,0.45186370,40.2392,05/30.0/2020,2000,g 14.5,4.0
# From MPC106349
164P/Christensen,e,16.2533,88.3055,325.8609,3.658341,0.1408568,0.53965274,102.7880,05/30.0/2020,2000,g 11.0,4.0
# From MPC 75721
165P/LINEAR,e,15.8994,0.7522,126.2292,17.90391,0.0130102,0.61475894,95.1762,05/30.0/2020,2000,g 11.5,2.0
# From MPC 75722
166P/NEAT,e,15.3614,64.5036,321.4559,13.83282,0.0191575,0.38201327,126.4356,05/30.0/2020,2000,g  5.5,4.0
# From MPC 75722
167P/CINEOS,e,19.1214,295.6529,344.1599,16.18607,0.0151353,0.27305838,105.4089,05/30.0/2020,2000,g  9.5,2.0
# From MPC102101
168P/Hergenrother,e,21.6126,355.4635,14.9913,3.581898,0.1453899,0.62067015,43.4474,05/30.0/2020,2000,g 15.5,4.0
# From MPEC 2015-M77
169P/NEAT,e,11.2957,176.0888,218.0688,2.601443,0.2348998,0.76795729,178.8998,05/30.0/2020,2000,g  9.0,4.0
# From MPC 89012
170P/Christensen,e,10.1250,142.9207,225.6444,4.198226,0.1145791,0.30340084,238.9125,05/30.0/2020,2000,g 12.0,4.0
# From MPC102102
171P/Spahr,e,21.9336,101.6972,347.1200,3.556599,0.1469439,0.50167573,73.8260,05/30.0/2020,2000,g 13.5,4.0
# From MPEC 2019-VB6
172P/Yeung,e,11.2331,30.8969,209.3730,4.210501,0.1140784,0.20616014,133.8347,05/30.0/2020,2000,g 13.0,4.0
# From MPEC 2020-HN5
173P/Mueller,e,16.4973,100.4007,29.3574,5.700712,0.0724120,0.26051633,318.9354,05/30.0/2020,2000,g  7.5,4.0
# From MPC 92985
174P/Echeclus,e,4.3431,173.2637,162.9123,10.70305,0.0281477,0.45706011,52.4632,05/30.0/2020,2000,g  9.4,2.0
# From MPC114608
175P/Hergenrother,e,6.0776,123.5282,56.2456,3.429260,0.1552042,0.43233959,37.5728,05/30.0/2020,2000,g 14.0,4.0
# From MPC 89015
176P/LINEAR,e,0.2348,345.8877,35.1403,3.193158,0.1727322,0.19296405,203.1443,05/30.0/2020,2000,g 15.1,2.0
# From MPC 75723
177P/Barnard,e,31.3356,272.3550,60.1565,24.37879,0.0081882,0.95510812,41.1227,05/30.0/2020,2000,g 15.0,4.0
# From MPC105242
178P/Hug-Bell,e,11.0897,102.8743,297.7846,3.630107,0.1425033,0.48175825,353.2157,05/30.0/2020,2000,g 13.5,4.0
# From MPC 75723
179P/Jedicke,e,19.8988,115.5256,296.5006,5.943049,0.0680284,0.30614063,310.5045,05/30.0/2020,2000,g  2.5,8.0
# From MPC100284
180P/NEAT,e,16.8683,84.5566,94.8954,3.861092,0.1299089,0.35336038,212.0597,05/30.0/2020,2000,g 11.0,4.0
# From MPC 89012
181P/Shoemaker-Levy,e,17.4856,35.4115,336.2539,3.870933,0.1294138,0.70035516,283.7887,05/30.0/2020,2000,g 11.5,4.0
# From MPEC 2014-J10
182P/LONEOS,e,16.2356,72.7247,53.8231,2.956374,0.1938943,0.66158819,221.7541,05/30.0/2020,2000,g 18.0,4.0
# From MPC110085
183P/Korlevic-Juric,e,18.6777,5.3441,163.8648,4.518603,0.1026119,0.13971286,93.9340,05/30.0/2020,2000,g 12.5,2.0
# From MPC105242
184P/Lovas,e,4.5727,173.2618,186.4227,3.795102,0.1333119,0.55119905,340.1139,05/30.0/2020,2000,g 13.5,4.0
# From MPC109593
185P/Petriew,e,13.9973,214.0960,181.8852,3.099577,0.1806136,0.69887939,154.1581,05/30.0/2020,2000,g 15.0,4.0
# From MPC100284
186P/Garradd,e,28.5122,326.8063,283.9634,5.012381,0.0878290,0.12440430,34.3911,05/30.0/2020,2000,g  7.5,4.0
# From MPC104795
187P/LINEAR,e,13.6347,109.9236,132.2281,4.574028,0.1007525,0.15245448,74.8174,05/30.0/2020,2000,g  9.0,4.0
# From MPC106349
188P/LINEAR-Mueller,e,10.5193,358.9561,26.5928,4.376417,0.1076530,0.41516316,128.9856,05/30.0/2020,2000,g 11.5,4.0
# From MPC106349
189P/NEAT,e,20.0743,281.7413,16.2515,2.947282,0.1947922,0.58871674,200.1460,05/30.0/2020,2000,g 19.0,4.0
# From MPC 75724
190P/Mueller,e,2.1741,335.5751,50.2832,4.235957,0.1130516,0.52072939,171.1211,05/30.0/2020,2000,g 13.0,4.0
# From MPC 92277
191P/McNaught,e,8.8440,98.2407,283.9116,3.639395,0.1419582,0.38657897,318.2920,05/30.0/2020,2000,g 13.0,4.0
# From MPC 75724
192P/Shoemaker-Levy,e,24.5331,51.6452,312.9017,6.478775,0.0597675,0.77275357,272.9752,05/30.0/2020,2000,g 15.0,4.0
# From MPC 92277
193P/LINEAR-NEAT,e,10.6868,335.1918,8.2540,3.575637,0.1457720,0.39402713,294.0030,05/30.0/2020,2000,g 14.0,4.0
# From MPC 98566
194P/LINEAR,e,11.1786,351.5982,130.7588,3.986461,0.1238291,0.57773533,191.9284,05/30.0/2020,2000,g 16.0,4.0
# From MPC 75724
195P/Hill,e,36.3412,243.0987,249.4795,6.498192,0.0594998,0.31327926,247.7208,05/30.0/2020,2000,g  8.5,4.0
# From MPC 92985
196P/Tichy,e,19.3014,24.2065,12.3187,3.797752,0.1331724,0.42862934,242.3693,05/30.0/2020,2000,g 13.5,4.0
# From MPC 94676
197P/LINEAR,e,25.5490,66.3944,188.7343,2.867256,0.2030039,0.62992443,172.9779,05/30.0/2020,2000,g 16.5,2.0
# From NK 1596
198P/ODAS,e,1.3386,358.2503,69.2612,3.600611,0.1442580,0.44311061,76.9203,05/30.0/2020,2000,g  9.0,4.0
# From MPC 75725
199P/Shoemaker,e,24.9356,92.3997,191.5703,5.898512,0.0688003,0.50607618,279.8813,05/30.0/2020,2000,g 10.0,4.0
# From MPC118098
200P/Larsen,e,12.1043,234.8037,134.0048,4.937177,0.0898434,0.33214971,27.5207,05/30.0/2020,2000,g  9.0,4.0
# From MPC 93588
201P/LONEOS,e,5.7363,19.9258,41.2903,3.360266,0.1600087,0.63766127,302.1684,05/30.0/2020,2000,g 14.0,4.0
# From MPC103849
202P/Scotti,e,2.0277,182.0919,274.9278,3.988154,0.1237503,0.28657661,182.3404,05/30.0/2020,2000,g 13.5,4.0
# From MPEC 2019-TG9
203P/Korlevic,e,2.9734,290.3487,154.8671,4.671056,0.0976296,0.31498281,8.3971,05/30.0/2020,2000,g 14.5,2.0
# From MPC 98566
204P/LINEAR-NEAT,e,6.6386,108.8413,354.9280,3.628601,0.1425921,0.48168374,231.3137,05/30.0/2020,2000,g 14.0,4.0
# From MPC 98566
205P/Giacobini,e,15.3009,179.5994,154.1839,3.543015,0.1477898,0.56781363,272.2860,05/30.0/2020,2000,g 13.0,4.0
# From MPC 75725
206P/Barnard-Boattini,e,33.6307,202.3695,189.4352,3.488563,0.1512635,0.55144395,317.8786,05/30.0/2020,2000,g 19.0,4.0
# From MPC 75725
207P/NEAT,e,10.1504,199.5994,271.9547,3.865060,0.1297089,0.76013022,185.5576,05/30.0/2020,2000,g 16.0,4.0
# From MPC101100
208P/McMillan,e,4.4089,36.3674,310.3867,4.047362,0.1210448,0.37325705,172.7821,05/30.0/2020,2000,g 12.5,4.0
# From MPC 90771
209P/LINEAR,e,21.2582,62.7665,152.4859,2.960440,0.1934950,0.67324378,68.1527,05/30.0/2020,2000,g 17.0,2.0
# From MPC105242
210P/Christensen,e,10.2619,93.8354,345.9086,3.165849,0.1749721,0.83322334,9.1120,05/30.0/2020,2000,g 13.5,4.0
# From MPC 96868
211P/Hill,e,18.9216,117.1387,4.1342,3.548912,0.1474216,0.34243378,233.5004,05/30.0/2020,2000,g 12.5,4.0
# From MPC104795
212P/NEAT,e,22.6204,98.6810,14.2606,3.881650,0.1288782,0.58911161,175.0606,05/30.0/2020,2000,g 17.0,2.0
# From MPC114608
213P/Van Ness,e,10.3823,311.3001,5.6004,3.348263,0.1608699,0.40807726,157.3432,05/30.0/2020,2000,g 10.5,4.0
# From MPC 92986
214P/LINEAR,e,15.1863,348.2621,190.2879,3.615876,0.1433454,0.48601123,238.2491,05/30.0/2020,2000,g 13.0,4.0
# From MPC118098
215P/NEAT,e,10.5814,56.6838,262.0659,4.327933,0.1094670,0.16707942,21.2137,05/30.0/2020,2000,g 11.0,4.0
# From MPC100284
216P/LINEAR,e,9.0511,359.8201,151.3739,3.870171,0.1294520,0.44552142,189.1631,05/30.0/2020,2000,g 13.0,4.0
# From MPC108598
217P/LINEAR,e,12.8641,125.4759,246.8502,3.951889,0.1254576,0.68821576,131.5053,05/30.0/2020,2000,g 12.0,4.0
# From MPC105242
218P/LINEAR,e,2.7254,175.9763,59.7803,3.094244,0.1810807,0.62189920,337.0441,05/30.0/2020,2000,g 16.0,4.0
# From MPC100284
219P/LINEAR,e,11.5291,231.0006,107.3539,3.651063,0.1412782,0.35350370,168.6411,05/30.0/2020,2000,g 11.0,4.0
# From MPEC 2020-HN5
220P/McNaught,e,8.1279,150.1089,180.5526,3.115792,0.1792055,0.50184493,325.1138,05/30.0/2020,2000,g 15.0,4.0
# From MPC 93589
221P/LINEAR,e,11.4261,229.7251,40.0367,3.457890,0.1532807,0.49283725,273.1017,05/30.0/2020,2000,g 14.5,4.0
# From MPC 92277
222P/LINEAR,e,5.0948,6.7981,346.2269,2.899355,0.1996420,0.71438480,71.8548,05/30.0/2020,2000,g 20.0,4.0
# From MPEC 2020-HN5
223P/Skiff,e,27.0162,346.7764,37.8216,4.159130,0.1161985,0.41565493,56.7893,05/30.0/2020,2000,g 12.0,4.0
# From MPC 75727
224P/LINEAR-NEAT,e,13.3260,40.3615,16.8029,3.436901,0.1546869,0.40863737,228.0894,05/30.0/2020,2000,g 15.5,4.0
# From MPC 75727
225P/LINEAR,e,21.3478,14.1831,3.8679,3.651166,0.1412722,0.63757700,195.3112,05/30.0/2020,2000,g 18.0,4.0
# From MPC106349
226P/Pigott-LINEAR-Kowalski,e,44.0064,54.0054,341.0546,3.767973,0.1347542,0.52815621,183.8325,05/30.0/2020,2000,g 12.5,4.0
# From MPC102956
227P/Catalina-LINEAR,e,6.5094,49.4605,90.1111,3.570912,0.1460614,0.50548832,156.4728,05/30.0/2020,2000,g 16.5,2.0
# From MPEC 2020-HN5
228P/LINEAR,e,7.9098,30.9859,115.2953,4.173798,0.1155865,0.17680756,9.2888,05/30.0/2020,2000,g 14.5,2.0
# From MPC106349
229P/Gibbs,e,26.0848,157.8983,223.9844,3.931592,0.1264304,0.37645928,139.7549,05/30.0/2020,2000,g 13.0,4.0
# From MPC110497
230P/LINEAR,e,15.5176,107.0190,313.7123,3.446464,0.1540435,0.54919465,258.8099,05/30.0/2020,2000,g 13.0,4.0
# From MPC114608
231P/LINEAR-NEAT,e,12.3342,133.0247,42.8632,4.018329,0.1223590,0.24763863,42.8561,05/30.0/2020,2000,g 14.5,2.0
# From MPC112394
232P/Hill,e,14.6308,56.0219,53.4940,4.482781,0.1038443,0.33430748,43.5861,05/30.0/2020,2000,g 11.5,4.0
# From MPC 92986
